{
  "type": "FeatureCollection",
  "features": [
    {
      "type": "Feature",
      "properties": {
        "norad_id": 28051,
        "name": "IRS-P6 (RESOURCESAT-1)",
        "group": "resource",
        "lat": -75.01816492493043,
        "lon": 59.51500625451016,
        "alt_km": 787.2219715338424,
        "timestamp": "2025-12-12T09:49:08.384330+00:00",
        "meta_object_name": "IRS-P6 (RESOURCESAT-1)",
        "meta_object_id": "2003-046A",
        "meta_epoch": "2025-12-12T05:31:41.185920",
        "meta_mean_motion": 14.36074844,
        "meta_eccentricity": 0.006411,
        "meta_inclination": 98.2177,
        "meta_ra_of_asc_node": 26.6604,
        "meta_arg_of_pericenter": 182.196,
        "meta_mean_anomaly": 255.9079,
        "meta_ephemeris_type": 0,
        "meta_classification_type": "U",
        "meta_norad_cat_id": 28051,
        "meta_element_set_no": 999,
        "meta_rev_at_epoch": 15369,
        "meta_bstar": 0.00014068,
        "meta_mean_motion_dot": 3.78e-06,
        "meta_mean_motion_ddot": 0,
        "tle_line1": "1 28051U 03046A   25346.23033780  .00000378  00000+0  14068-3 0  9994",
        "tle_line2": "2 28051  98.2177  26.6604 0064110 182.1960 255.9079 14.36074844153697"
      },
      "geometry": {
        "type": "Point",
        "coordinates": [
          59.51500625451016,
          -75.01816492493043
        ]
      }
    },
    {
      "type": "Feature",
      "properties": {
        "norad_id": 28220,
        "name": "SHIYAN-1 (SY-1)",
        "group": "resource",
        "lat": 45.435620562721944,
        "lon": 39.8294591422573,
        "alt_km": 476.8058780527663,
        "timestamp": "2025-12-12T09:49:08.384341+00:00",
        "meta_object_name": "SHIYAN-1 (SY-1)",
        "meta_object_id": "2004-012A",
        "meta_epoch": "2025-12-12T03:19:56.356608",
        "meta_mean_motion": 15.2811947,
        "meta_eccentricity": 0.0005682,
        "meta_inclination": 97.8934,
        "meta_ra_of_asc_node": 47.6413,
        "meta_arg_of_pericenter": 327.7572,
        "meta_mean_anomaly": 32.3318,
        "meta_ephemeris_type": 0,
        "meta_classification_type": "U",
        "meta_norad_cat_id": 28220,
        "meta_element_set_no": 999,
        "meta_rev_at_epoch": 18247,
        "meta_bstar": 0.00070988,
        "meta_mean_motion_dot": 0.00019419,
        "meta_mean_motion_ddot": 0,
        "tle_line1": "1 28220U 04012A   25346.13884672  .00019419  00000+0  70988-3 0  9998",
        "tle_line2": "2 28220  97.8934  47.6413 0005682 327.7572  32.3318 15.28119470182475"
      },
      "geometry": {
        "type": "Point",
        "coordinates": [
          39.8294591422573,
          45.435620562721944
        ]
      }
    },
    {
      "type": "Feature",
      "properties": {
        "norad_id": 28376,
        "name": "AURA",
        "group": "resource",
        "lat": 20.500533976789203,
        "lon": 119.7699786569055,
        "alt_km": 689.7513773830742,
        "timestamp": "2025-12-12T09:49:08.384352+00:00",
        "meta_object_name": "AURA",
        "meta_object_id": "2004-026A",
        "meta_epoch": "2025-12-12T04:09:42.120288",
        "meta_mean_motion": 14.60944816,
        "meta_eccentricity": 0.0001226,
        "meta_inclination": 98.3184,
        "meta_ra_of_asc_node": 296.3973,
        "meta_arg_of_pericenter": 93.8546,
        "meta_mean_anomaly": 266.2795,
        "meta_ephemeris_type": 0,
        "meta_classification_type": "U",
        "meta_norad_cat_id": 28376,
        "meta_element_set_no": 999,
        "meta_rev_at_epoch": 13890,
        "meta_bstar": 0.00037478,
        "meta_mean_motion_dot": 1.788e-05,
        "meta_mean_motion_ddot": 0,
        "tle_line1": "1 28376U 04026A   25346.17340417  .00001788  00000+0  37478-3 0  9990",
        "tle_line2": "2 28376  98.3184 296.3973 0001226  93.8546 266.2795 14.60944816138907"
      },
      "geometry": {
        "type": "Point",
        "coordinates": [
          119.7699786569055,
          20.500533976789203
        ]
      }
    },
    {
      "type": "Feature",
      "properties": {
        "norad_id": 28649,
        "name": "IRS-P5 (CARTOSAT-1)",
        "group": "resource",
        "lat": -22.78218581825341,
        "lon": 16.03021135265262,
        "alt_km": 601.8315343396189,
        "timestamp": "2025-12-12T09:49:08.384363+00:00",
        "meta_object_name": "IRS-P5 (CARTOSAT-1)",
        "meta_object_id": "2005-017A",
        "meta_epoch": "2025-12-12T01:51:55.441728",
        "meta_mean_motion": 14.90400603,
        "meta_eccentricity": 0.0001253,
        "meta_inclination": 97.5498,
        "meta_ra_of_asc_node": 12.5203,
        "meta_arg_of_pericenter": 46.8293,
        "meta_mean_anomaly": 313.303,
        "meta_ephemeris_type": 0,
        "meta_classification_type": "U",
        "meta_norad_cat_id": 28649,
        "meta_element_set_no": 999,
        "meta_rev_at_epoch": 11594,
        "meta_bstar": 0.0002866,
        "meta_mean_motion_dot": 2.739e-05,
        "meta_mean_motion_ddot": 0,
        "tle_line1": "1 28649U 05017A   25346.07772502  .00002739  00000+0  28660-3 0  9997",
        "tle_line2": "2 28649  97.5498  12.5203 0001253  46.8293 313.3030 14.90400603115949"
      },
      "geometry": {
        "type": "Point",
        "coordinates": [
          16.03021135265262,
          -22.78218581825341
        ]
      }
    },
    {
      "type": "Feature",
      "properties": {
        "norad_id": 28893,
        "name": "SINAH 1",
        "group": "resource",
        "lat": 1.677974485076959,
        "lon": 114.72153586425577,
        "alt_km": 690.9565823691164,
        "timestamp": "2025-12-12T09:49:08.384374+00:00",
        "meta_object_name": "SINAH 1",
        "meta_object_id": "2005-043D",
        "meta_epoch": "2025-12-12T03:14:59.271072",
        "meta_mean_motion": 14.63961601,
        "meta_eccentricity": 0.0015309,
        "meta_inclination": 98.2602,
        "meta_ra_of_asc_node": 114.691,
        "meta_arg_of_pericenter": 138.7726,
        "meta_mean_anomaly": 221.4636,
        "meta_ephemeris_type": 0,
        "meta_classification_type": "U",
        "meta_norad_cat_id": 28893,
        "meta_element_set_no": 999,
        "meta_rev_at_epoch": 7315,
        "meta_bstar": 0.00016269,
        "meta_mean_motion_dot": 8.04e-06,
        "meta_mean_motion_ddot": 0,
        "tle_line1": "1 28893U 05043D   25346.13540823  .00000804  00000+0  16269-3 0  9996",
        "tle_line2": "2 28893  98.2602 114.6910 0015309 138.7726 221.4636 14.63961601 73150"
      },
      "geometry": {
        "type": "Point",
        "coordinates": [
          114.72153586425577,
          1.677974485076959
        ]
      }
    },
    {
      "type": "Feature",
      "properties": {
        "norad_id": 29079,
        "name": "EROS B",
        "group": "resource",
        "lat": -66.1895863371484,
        "lon": -94.03428696412124,
        "alt_km": 370.67676225272135,
        "timestamp": "2025-12-12T09:49:08.384385+00:00",
        "meta_object_name": "EROS B",
        "meta_object_id": "2006-014A",
        "meta_epoch": "2025-12-12T05:42:16.147296",
        "meta_mean_motion": 15.68065058,
        "meta_eccentricity": 0.0002055,
        "meta_inclination": 97.3464,
        "meta_ra_of_asc_node": 102.7869,
        "meta_arg_of_pericenter": 302.1835,
        "meta_mean_anomaly": 57.9227,
        "meta_ephemeris_type": 0,
        "meta_classification_type": "U",
        "meta_norad_cat_id": 29079,
        "meta_element_set_no": 999,
        "meta_rev_at_epoch": 9072,
        "meta_bstar": 0.0018794,
        "meta_mean_motion_dot": 0.00213262,
        "meta_mean_motion_ddot": 0,
        "tle_line1": "1 29079U 06014A   25346.23768689  .00213262  00000+0  18794-2 0  9993",
        "tle_line2": "2 29079  97.3464 102.7869 0002055 302.1835  57.9227 15.68065058 90723"
      },
      "geometry": {
        "type": "Point",
        "coordinates": [
          -94.03428696412124,
          -66.1895863371484
        ]
      }
    },
    {
      "type": "Feature",
      "properties": {
        "norad_id": 29228,
        "name": "RESURS-DK 1",
        "group": "resource",
        "lat": -43.83619380211553,
        "lon": -56.75877998286007,
        "alt_km": 531.4223106305271,
        "timestamp": "2025-12-12T09:49:08.384396+00:00",
        "meta_object_name": "RESURS-DK 1",
        "meta_object_id": "2006-021A",
        "meta_epoch": "2025-12-11T18:31:39.599904",
        "meta_mean_motion": 15.12152295,
        "meta_eccentricity": 0.0007332,
        "meta_inclination": 69.9332,
        "meta_ra_of_asc_node": 104.3392,
        "meta_arg_of_pericenter": 260.6062,
        "meta_mean_anomaly": 99.4275,
        "meta_ephemeris_type": 0,
        "meta_classification_type": "U",
        "meta_norad_cat_id": 29228,
        "meta_element_set_no": 999,
        "meta_rev_at_epoch": 7423,
        "meta_bstar": 0.00025496,
        "meta_mean_motion_dot": 4.303e-05,
        "meta_mean_motion_ddot": 0,
        "tle_line1": "1 29228U 06021A   25345.77198611  .00004303  00000+0  25496-3 0  9999",
        "tle_line2": "2 29228  69.9332 104.3392 0007332 260.6062  99.4275 15.12152295 74231"
      },
      "geometry": {
        "type": "Point",
        "coordinates": [
          -56.75877998286007,
          -43.83619380211553
        ]
      }
    }
  ]
}